NORAD_CAT_ID,OBJECT_NAME,OBJECT_TYPE,EPOCH,MEAN_MOTION,ECCENTRICITY,INCLINATION,RA_OF_ASC_NODE,ARG_OF_PERICENTER,MEAN_ANOMALY,BSTAR,MEAN_MOTION_DOT,MEAN_MOTION_DDOT,TLE_LINE0,TLE_LINE1,TLE_LINE2,SEMIMAJOR_AXIS,PERIOD,APOGEE,PERIGEE,DECAYED
55649.0,STARLINK-5469,PAYLOAD,2023-11-13 07:19:49,14.98331157,0.0002877,69.9993,160.9254,270.3148,89.7682,-8.9642e-06,-2e-06,0.0,0 STARLINK-5469,1 55649U 23021X   23317.30542948 -.00000200  00000-0 -89642-5 0  9996,2 55649  69.9993 160.9254 0002877 270.3148  89.7682 14.98331157 41560,6950.189,96.107,574.054,570.055,0.0
55649.0,STARLINK-5469,PAYLOAD,2023-11-14 07:21:50,14.98330117,0.0002944,69.999,158.401,270.9296,89.1525,-8.2203e-06,-1.91e-06,0.0,0 STARLINK-5469,1 55649U 23021X   23318.30682878 -.00000191  00000-0 -82203-5 0  9999,2 55649  69.9990 158.4010 0002944 270.9296  89.1525 14.98330117 41716,6950.193,96.107,574.104,570.011,0.0
55649.0,STARLINK-5469,PAYLOAD,2023-11-14 13:46:22,14.98330115,0.0002931,69.9991,157.7279,271.1677,88.9146,-1.96e-05,-3.27e-06,0.0,0 STARLINK-5469,1 55649U 23021X   23318.57386904 -.00000327  00000-0 -19600-4 0  9990,2 55649  69.9991 157.7279 0002931 271.1677  88.9146 14.98330115 42050,6950.193,96.107,574.095,570.02,0.0
55649.0,STARLINK-5469,PAYLOAD,2023-11-14 20:10:54,14.98331401,0.0002983,69.9991,157.0543,270.1966,89.8852,-3.2647e-05,-4.83e-06,0.0,0 STARLINK-5469,1 55649U 23021X   23318.84090824 -.00000483  00000-0 -32647-4 0  9992,2 55649  69.9991 157.0543 0002983 270.1966  89.8852 14.98331401 42091,6950.189,96.107,574.127,569.98,0.0
55649.0,STARLINK-5469,PAYLOAD,2023-11-14 23:23:10,14.98331461,0.0002978,69.9991,156.7177,270.3241,89.7576,-2.9771e-05,-4.48e-06,0.0,0 STARLINK-5469,1 55649U 23021X   23318.97442799 -.00000448  00000-0 -29771-4 0  9993,2 55649  69.9991 156.7177 0002978 270.3241  89.7576 14.98331461 42113,6950.188,96.107,574.123,569.984,0.0
55649.0,STARLINK-5469,PAYLOAD,2023-11-15 23:25:11,14.98330227,0.0003005,70.0013,154.1934,270.7067,89.3748,2.758e-05,2.36e-06,0.0,0 STARLINK-5469,1 55649U 23021X   23319.97582606  .00000236  00000-0  27580-4 0  9995,2 55649  70.0013 154.1934 0003005 270.7067  89.3748 14.98330227 41964,6950.192,96.107,574.146,569.969,0.0
55649.0,STARLINK-5469,PAYLOAD,2023-11-16 05:49:43,14.98329053,0.0003012,69.9998,153.5199,270.1456,89.9357,1.3537e-05,6.9e-07,0.0,0 STARLINK-5469,1 55649U 23021X   23320.24286689  .00000069  00000-0  13537-4 0  9990,2 55649  69.9998 153.5199 0003012 270.1456  89.9357 14.98329053 42309,6950.196,96.107,574.154,569.967,0.0
55649.0,STARLINK-5469,PAYLOAD,2023-11-16 23:27:12,14.98329871,0.0003064,70.0006,151.6678,272.7824,87.2984,3.8941e-06,-4.7e-07,0.0,0 STARLINK-5469,1 55649U 23021X   23320.97722647 -.00000047  00000-0  38941-5 0  9993,2 55649  70.0006 151.6678 0003064 272.7824  87.2984 14.98329871 42111,6950.193,96.107,574.188,569.929,0.0
55649.0,STARLINK-5469,PAYLOAD,2023-11-17 05:51:44,14.98330518,0.0003064,69.9994,150.9948,270.6992,89.3816,-6.4418e-06,-1.7e-06,0.0,0 STARLINK-5469,1 55649U 23021X   23321.24426601 -.00000170  00000-0 -64418-5 0  9991,2 55649  69.9994 150.9948 0003064 270.6992  89.3816 14.98330518 42453,6950.191,96.107,574.186,569.927,0.0
55649.0,STARLINK-5469,PAYLOAD,2023-11-18 12:18:18,14.98325182,0.0002856,69.9986,147.7974,268.8233,91.2599,-4.6053e-05,-6.42e-06,0.0,0 STARLINK-5469,1 55649U 23021X   23322.51271312 -.00000642  00000-0 -46053-4 0  9997,2 55649  69.9986 147.7974 0002856 268.8233  91.2599 14.98325182 42341,6950.208,96.107,574.058,570.088,0.0
55649.0,STARLINK-5469,PAYLOAD,2023-11-18 21:55:06,14.98323304,0.0002912,70.0006,146.7874,268.7577,91.3248,-3.8127e-05,-5.48e-06,0.0,0 STARLINK-5469,1 55649U 23021X   23322.91327512 -.00000548  00000-0 -38127-4 0  9993,2 55649  70.0006 146.7874 0002912 268.7577  91.3248 14.98323304 42704,6950.214,96.107,574.103,570.055,0.0
55649.0,STARLINK-5469,PAYLOAD,2023-11-19 12:20:19,14.98323716,0.0002937,69.9972,145.2717,269.0595,91.0228,7.5747e-06,-3e-08,0.0,0 STARLINK-5469,1 55649U 23021X   23323.51411554 -.00000003  00000-0  75747-5 0  9995,2 55649  69.9972 145.2717 0002937 269.0595  91.0228 14.98323716 42492,6950.212,96.107,574.119,570.036,0.0
55649.0,STARLINK-5469,PAYLOAD,2023-11-19 13:56:27,14.9832507,0.0002939,69.9981,145.1033,269.018,91.0642,2.2274e-05,1.73e-06,0.0,0 STARLINK-5469,1 55649U 23021X   23323.58087452  .00000173  00000-0  22274-4 0  9991,2 55649  69.9981 145.1033 0002939 269.0180  91.0642 14.98325070 42804,6950.208,96.107,574.116,570.03,0.0
55649.0,STARLINK-5469,PAYLOAD,2023-11-19 21:57:07,14.98323744,0.0002941,69.9987,144.2618,269.3689,90.7133,3.8344e-05,3.64e-06,0.0,0 STARLINK-5469,1 55649U 23021X   23323.91467589  .00000364  00000-0  38344-4 0  9998,2 55649  69.9987 144.2618 0002941 269.3689  90.7133 14.98323744 42851,6950.212,96.107,574.121,570.033,0.0
55649.0,STARLINK-5469,PAYLOAD,2023-11-20 13:58:28,14.98325977,0.0002948,69.9987,142.5784,269.3914,90.6907,5.5752e-05,5.72e-06,0.0,0 STARLINK-5469,1 55649U 23021X   23324.58227621  .00000572  00000-0  55752-4 0  9996,2 55649  69.9987 142.5784 0002948 269.3914  90.6907 14.98325977 42953,6950.205,96.107,574.119,570.021,0.0
55649.0,STARLINK-5469,PAYLOAD,2023-11-20 20:23:00,14.98327763,0.0002963,69.9988,141.9051,269.5046,90.5774,5.9522e-05,6.17e-06,0.0,0 STARLINK-5469,1 55649U 23021X   23324.84931554  .00000617  00000-0  59522-4 0  9991,2 55649  69.9988 141.9051 0002963 269.5046  90.5774 14.98327763 42696,6950.2,96.107,574.124,570.005,0.0
55649.0,STARLINK-5469,PAYLOAD,2023-11-20 21:59:08,14.98328424,0.0002915,69.9989,141.7368,269.6632,90.4193,6.1851e-05,6.45e-06,0.0,0 STARLINK-5469,1 55649U 23021X   23324.91607519  .00000645  00000-0  61851-4 0  9999,2 55649  69.9989 141.7368 0002915 269.6632  90.4193 14.98328424 43000,6950.198,96.107,574.089,570.037,0.0
55649.0,STARLINK-5469,PAYLOAD,2023-11-21 14:00:29,14.98332112,0.0002926,69.9989,140.0536,269.7717,90.3106,6.5214e-05,6.85e-06,0.0,0 STARLINK-5469,1 55649U 23021X   23325.58367285  .00000685  00000-0  65214-4 0  9997,2 55649  69.9989 140.0536 0002926 269.7717  90.3106 14.98332112 43109,6950.186,96.107,574.085,570.018,0.0
55649.0,STARLINK-5469,PAYLOAD,2023-11-21 20:25:02,14.98286722,0.0002671,69.9987,139.3803,272.7024,87.3829,0.00088932,0.00010522,0.0,0 STARLINK-5469,1 55649U 23021X   23325.85072124  .00010522  00000-0  88932-3 0  9994,2 55649  69.9987 139.3803 0002671 272.7024  87.3829 14.98286722 43144,6950.327,96.11,574.048,570.335,0.0
55649.0,STARLINK-5469,PAYLOAD,2023-11-21 22:01:09,14.98334949,0.0002927,69.9987,139.2119,269.9459,90.1364,8.0709e-05,8.7e-06,0.0,0 STARLINK-5469,1 55649U 23021X   23325.91746996  .00000870  00000-0  80709-4 0  9996,2 55649  69.9987 139.2119 0002927 269.9459  90.1364 14.98334949 42855,6950.178,96.107,574.077,570.008,0.0
55649.0,STARLINK-5469,PAYLOAD,2023-11-22 14:02:29,14.98336299,0.0002898,69.9988,137.5287,269.8888,90.1938,5.3606e-05,5.47e-06,0.0,0 STARLINK-5469,1 55649U 23021X   23326.58506766  .00000547  00000-0  53606-4 0  9996,2 55649  69.9988 137.5287 0002898 269.8888  90.1938 14.98336299 43257,6950.173,96.107,574.053,570.024,0.0
55649.0,STARLINK-5469,PAYLOAD,2023-11-22 20:27:01,14.98337017,0.0002866,69.9989,136.8555,269.7125,90.3706,5.6461e-05,5.81e-06,0.0,0 STARLINK-5469,1 55649U 23021X   23326.85210597  .00000581  00000-0  56461-4 0  9990,2 55649  69.9989 136.8555 0002866 269.7125  90.3706 14.98337017 43294,6950.171,96.107,574.028,570.044,0.0
55649.0,STARLINK-5469,PAYLOAD,2023-11-23 14:04:30,14.98336212,0.0002779,69.9989,135.0039,265.9376,94.1465,-5.8885e-06,-1.63e-06,0.0,0 STARLINK-5469,1 55649U 23021X   23327.58646456 -.00000163  00000-0 -58885-5 0  9999,2 55649  69.9989 135.0039 0002779 265.9376  94.1465 14.98336212 43404,6950.174,96.107,573.97,570.107,0.0
55649.0,STARLINK-5469,PAYLOAD,2023-11-23 18:52:54,14.98334868,0.0002788,69.999,134.499,264.9825,95.1016,-2.0583e-05,-3.39e-06,0.0,0 STARLINK-5469,1 55649U 23021X   23327.78674493 -.00000339  00000-0 -20583-4 0  9991,2 55649  69.9990 134.4990 0002788 264.9825  95.1016 14.98334868 43131,6950.178,96.107,573.981,570.105,0.0
55649.0,STARLINK-5469,PAYLOAD,2023-11-23 22:05:10,14.98334459,0.0002803,69.9989,134.1623,265.969,94.1148,-2.5158e-05,-3.93e-06,0.0,0 STARLINK-5469,1 55649U 23021X   23327.92026487 -.00000393  00000-0 -25158-4 0  9994,2 55649  69.9989 134.1623 0002803 265.9690  94.1148 14.98334459 43454,6950.179,96.107,573.992,570.096,0.0
55649.0,STARLINK-5469,PAYLOAD,2023-11-24 14:06:31,14.98333965,0.0002795,69.9991,132.4792,264.7569,95.3271,-3.9954e-05,-5.7e-06,0.0,0 STARLINK-5469,1 55649U 23021X   23328.58786323 -.00000570  00000-0 -39954-4 0  9995,2 55649  69.9991 132.4792 0002795 264.7569  95.3271 14.98333965 43559,6950.181,96.107,573.988,570.103,0.0
55649.0,STARLINK-5469,PAYLOAD,2023-11-24 18:54:55,14.98332627,0.0002796,69.9993,131.9745,264.6843,95.3997,-5.0148e-05,-6.91e-06,0.0,0 STARLINK-5469,1 55649U 23021X   23328.78814386 -.00000691  00000-0 -50148-4 0  9990,2 55649  69.9993 131.9745 0002796 264.6843  95.3997 14.98332627 43287,6950.185,96.107,573.993,570.106,0.0
55649.0,STARLINK-5469,PAYLOAD,2023-11-24 20:31:03,14.9833286,0.00028,69.9993,131.8062,264.9904,95.0935,-4.6883e-05,-6.52e-06,0.0,0 STARLINK-5469,1 55649U 23021X   23328.85490349 -.00000652  00000-0 -46883-4 0  9995,2 55649  69.9993 131.8062 0002800 264.9904  95.0935 14.98332860 43597,6950.184,96.107,573.995,570.103,0.0
55649.0,STARLINK-5469,PAYLOAD,2023-11-25 14:08:31,14.98334717,0.0002867,69.9992,129.9546,265.5205,94.5626,2.9208e-05,2.56e-06,0.0,0 STARLINK-5469,1 55649U 23021X   23329.58925787  .00000256  00000-0  29208-4 0  9995,2 55649  69.9992 129.9546 0002867 265.5205  94.5626 14.98334717 43702,6950.178,96.107,574.036,570.051,0.0
55649.0,STARLINK-5469,PAYLOAD,2023-11-25 20:33:03,14.98337718,0.0002921,69.9989,129.2804,269.423,90.6595,6.1454e-05,6.4e-06,0.0,0 STARLINK-5469,1 55649U 23021X   23329.85629425  .00000640  00000-0  61454-4 0  9991,2 55649  69.9989 129.2804 0002921 269.4230  90.6595 14.98337718 43740,6950.169,96.107,574.064,570.004,0.0
